OBJECT_NAME,OBJECT_ID,EPOCH,MEAN_MOTION,ECCENTRICITY,INCLINATION,RA_OF_ASC_NODE,ARG_OF_PERICENTER,MEAN_ANOMALY,EPHEMERIS_TYPE,CLASSIFICATION_TYPE,NORAD_CAT_ID,ELEMENT_SET_NO,REV_AT_EPOCH,BSTAR,MEAN_MOTION_DOT,MEAN_MOTION_DDOT
STARLINK-37892,2026-131H,2026-07-06T02:38:54.729888,15.80861687,.00011026,97.2855,208.4983,110.0826,250.0561,0,U,69485,999,515,.80735423E-3,.157658E-2,0
STARLINK-37893,2026-131J,2026-07-06T02:37:49.380384,15.80886214,.00012616,97.2844,208.5004,330.6622,29.4575,0,U,69486,999,515,.97520973E-3,.191424E-2,0
STARLINK-37842,2026-131K,2026-07-06T01:05:35.380896,15.80902395,.0001035,97.2835,208.4339,86.0215,274.1171,0,U,69487,999,514,.79489703E-3,.155472E-2,0
STARLINK-37449,2026-131L,2026-07-03T16:51:47.987136,15.81072024,.0001406,97.2838,205.9575,75.3533,284.7891,0,U,69488,999,477,.1656E-2,.333366E-2,0
STARLINK-37831,2026-131M,2026-07-04T12:35:43.914048,15.81093753,.0001391,97.2833,206.8290,50.2531,309.8859,0,U,69489,999,490,.27575E-2,.57137E-2,0
STARLINK-37879,2026-131N,2026-07-05T18:57:44.420544,15.81055701,.00014396,97.2836,208.1698,40.3883,319.7492,0,U,69490,999,510,.22558141E-2,.460581E-2,0
STARLINK-37856,2026-131P,2026-07-06T01:13:21.492480,15.80849044,.00014645,97.2852,208.4269,29.2857,330.8493,0,U,69491,999,514,.16813642E-3,.32232E-3,0
STARLINK-37568,2026-131Q,2026-07-06T01:00:10.535040,15.80805733,.00018247,97.2844,208.4394,359.4417,0.6849,0,U,69492,999,514,.3248958E-3,.62511E-3,0
STARLINK-37855,2026-131R,2026-07-06T01:08:51.138240,15.80856973,.00024466,97.2811,208.4391,10.7929,349.3391,0,U,69493,999,514,.10909355E-3,.20846E-3,0
STARLINK-37854,2026-131S,2026-07-05T19:06:07.449984,15.80887892,.00010701,97.2846,208.1608,81.5511,278.5878,0,U,69494,999,510,.15092925E-2,.300115E-2,0
STARLINK-37789,2026-131T,2026-07-06T00:56:56.269824,15.80887095,.00005365,97.2840,208.4416,21.5352,338.5939,0,U,69495,999,388,.94952738E-3,.186277E-2,0
STARLINK-37839,2026-131U,2026-07-06T02:38:21.810624,15.80922434,.0001098,97.2852,208.4999,95.8583,264.2810,0,U,69496,999,389,.13750057E-2,.27297E-2,0
STARLINK-37798,2026-131V,2026-07-06T00:55:51.248640,15.80863291,.00011638,97.2839,208.4449,355.3535,4.7722,0,U,69497,999,388,.55333476E-3,.107392E-2,0
STARLINK-37853,2026-131W,2026-07-06T00:50:26.611872,15.80929941,.00005974,97.2846,208.4477,91.6023,268.5314,0,U,69498,999,388,.15061647E-2,.300074E-2,0
STARLINK-37849,2026-131X,2026-07-06T00:51:31.113792,15.80886702,.00013111,97.2847,208.4471,73.7886,286.3526,0,U,69499,999,388,.43448003E-3,.8416E-3,0
STARLINK-37835,2026-131Y,2026-07-06T00:53:40.795872,15.80895749,.00006788,97.2845,208.4453,55.6811,304.4522,0,U,69500,999,388,.75590319E-3,.14766E-2,0
STARLINK-37843,2026-131Z,2026-07-06T00:52:36.706080,15.80870726,.00011582,97.2834,208.4461,71.2950,288.8443,0,U,69501,999,388,.64094732E-3,.12471E-2,0
STARS-X,2026-132A,2026-07-06T04:17:34.851840,14.99089905,.0013769,97.6881,250.6024,197.9470,162.1269,0,U,69502,999,362,.14624954E-3,.172E-4,0
2026-132B,2026-132B,2026-07-06T04:15:34.147584,14.99170220,.00136593,97.6910,250.6135,199.9866,160.0824,0,U,69503,999,362,.11978E-3,.1401E-4,0
BRO-22,2026-132C,2026-07-06T04:01:09.595488,14.99790953,.00156034,97.6835,250.6047,213.8150,146.2079,0,U,69504,999,362,.11274392E-3,.1338E-4,0
HORN-L,2026-132D,2026-07-05T19:53:15.313344,15.09486584,.00235909,97.6832,250.4311,236.3164,123.5815,0,U,69505,999,358,.2794095E-3,.4438E-4,0
VERTECS,2026-132E,2026-07-06T03:34:47.602848,15.00969482,.00146172,97.6839,250.6396,236.9042,123.0780,0,U,69506,999,361,.23863818E-3,.2989E-4,0
HORN-R,2026-132F,2026-07-05T20:30:34.116192,15.04962270,.00176665,97.6845,250.3917,231.8065,128.1571,0,U,69507,999,357,.13989236E-3,.1926E-4,0
STARLINK-37536,2026-133A,2026-07-06T04:00:01.999584,15.49268982,.0001072,53.1599,228.0211,83.9375,312.2600,0,U,69508,999,502,.6670323E-3,.36772E-3,0
STARLINK-37341,2026-133B,2026-07-06T04:00:01.999584,15.49310149,.00013858,53.1600,228.0418,71.5522,314.3057,0,U,69509,999,502,.65365719E-3,.36075E-3,0
STARLINK-36536,2026-133C,2026-07-06T04:00:01.999584,15.57565667,.00008859,53.1601,227.3604,85.8972,276.2266,0,U,69510,999,496,-.10074943E-1,-.694327E-2,0
STARLINK-37420,2026-133D,2026-07-06T04:00:01.999584,15.61627118,.00010577,53.1599,227.1712,95.2081,359.1130,0,U,69511,999,491,-.24013602E-1,-.1866234E-1,0
STARLINK-37511,2026-133E,2026-07-06T04:00:01.999584,15.61637340,.00012788,53.1595,227.1759,60.6699,31.6503,0,U,69512,999,491,-.32031206E-1,-.2452691E-1,0
STARLINK-37552,2026-133F,2026-07-06T04:00:01.999584,15.49299339,.00019396,53.1601,228.0331,52.2678,336.8294,0,U,69513,999,492,.61512258E-3,.339E-3,0
STARLINK-37607,2026-133G,2026-07-06T04:00:01.999584,15.58650237,.00010316,53.1592,227.1729,67.7559,25.9110,0,U,69514,999,492,-.3584811E-1,-.2445919E-1,0
