STARLINK-37892          
1 69485U 26131H   26187.11035567  .00157658  00000+0  80735-3 0  9994
2 69485  97.2855 208.4983 0001102 110.0826 250.0561 15.80861687  5156
STARLINK-37893          
1 69486U 26131J   26187.10959931  .00191424  00000+0  97521-3 0  9994
2 69486  97.2844 208.5004 0001261 330.6622  29.4575 15.80886214  5156
STARLINK-37842          
1 69487U 26131K   26187.04554839  .00155472  00000+0  79490-3 0  9994
2 69487  97.2835 208.4339 0001035  86.0215 274.1171 15.80902395  5145
STARLINK-37449          
1 69488U 26131L   26184.70263874  .00333366  00000+0  16560-2 0  9999
2 69488  97.2838 205.9575 0001406  75.3533 284.7891 15.81072024  4771
STARLINK-37831          
1 69489U 26131M   26185.52481382  .00571370  00000+0  27575-2 0  9994
2 69489  97.2833 206.8290 0001391  50.2531 309.8859 15.81093753  4904
STARLINK-37879          
1 69490U 26131N   26186.79009746  .00460581  00000+0  22558-2 0  9993
2 69490  97.2836 208.1698 0001439  40.3883 319.7492 15.81055701  5106
STARLINK-37856          
1 69491U 26131P   26187.05094320  .00032232  00000+0  16814-3 0  9993
2 69491  97.2852 208.4269 0001464  29.2857 330.8493 15.80849044  5146
STARLINK-37568          
1 69492U 26131Q   26187.04178860  .00062511  00000+0  32490-3 0  9996
2 69492  97.2844 208.4394 0001824 359.4417   0.6849 15.80805733  5141
STARLINK-37855          
1 69493U 26131R   26187.04781410  .00020846  00000+0  10909-3 0  9994
2 69493  97.2811 208.4391 0002446  10.7929 349.3391 15.80856973  5146
STARLINK-37854          
1 69494U 26131S   26186.79591956  .00300115  00000+0  15093-2 0  9998
2 69494  97.2846 208.1608 0001070  81.5511 278.5878 15.80887892  5101
STARLINK-37789          
1 69495U 26131T   26187.03954016  .00186277  00000+0  94953-3 0  9991
2 69495  97.2840 208.4416 0000536  21.5352 338.5939 15.80887095  3882
STARLINK-37839          
1 69496U 26131U   26187.10997466  .00272970  00000+0  13750-2 0  9997
2 69496  97.2852 208.4999 0001098  95.8583 264.2810 15.80922434  3897
STARLINK-37798          
1 69497U 26131V   26187.03878760  .00107392  00000+0  55333-3 0  9994
2 69497  97.2839 208.4449 0001163 355.3535   4.7722 15.80863291  3880
STARLINK-37853          
1 69498U 26131W   26187.03503023  .00300074  00000+0  15062-2 0  9998
2 69498  97.2846 208.4477 0000597  91.6023 268.5314 15.80929941  3884
STARLINK-37849          
1 69499U 26131X   26187.03577678  .00084160  00000+0  43448-3 0  9991
2 69499  97.2847 208.4471 0001311  73.7886 286.3526 15.80886702  3883
STARLINK-37835          
1 69500U 26131Y   26187.03727773  .00147660  00000+0  75590-3 0  9995
2 69500  97.2845 208.4453 0000678  55.6811 304.4522 15.80895749  3885
STARLINK-37843          
1 69501U 26131Z   26187.03653595  .00124710  00000+0  64095-3 0  9995
2 69501  97.2834 208.4461 0001158  71.2950 288.8443 15.80870726  3880
STARS-X                 
1 69502U 26132A   26187.17887560  .00001720  00000+0  14625-3 0  9992
2 69502  97.6881 250.6024 0013769 197.9470 162.1269 14.99089905  3627
2026-132B               
1 69503U 26132B   26187.17747856  .00001401  00000+0  11978-3 0  9990
2 69503  97.6910 250.6135 0013659 199.9866 160.0824 14.99170220  3628
BRO-22                  
1 69504U 26132C   26187.16747217  .00001338  00000+0  11274-3 0  9999
2 69504  97.6835 250.6047 0015603 213.8150 146.2079 14.99790953  3629
HORN-L                  
1 69505U 26132D   26186.82864946  .00004438  00000+0  27941-3 0  9993
2 69505  97.6832 250.4311 0023590 236.3164 123.5815 15.09486584  3583
VERTECS                 
1 69506U 26132E   26187.14916207  .00002989  00000+0  23864-3 0  9997
2 69506  97.6839 250.6396 0014617 236.9042 123.0780 15.00969482  3611
HORN-R                  
1 69507U 26132F   26186.85456153  .00001926  00000+0  13989-3 0  9991
2 69507  97.6845 250.3917 0017666 231.8065 128.1571 15.04962270  3572
STARLINK-37536          
1 69508U 26133A   26187.16668981  .00036772  00000+0  66703-3 0  9991
2 69508  53.1599 228.0211 0001072  83.9375 312.2600 15.49268982  5028
STARLINK-37341          
1 69509U 26133B   26187.16668981  .00036075  00000+0  65366-3 0  9992
2 69509  53.1600 228.0418 0001385  71.5522 314.3057 15.49310149  5027
STARLINK-36536          
1 69510U 26133C   26187.16668981 -.00694327  00000+0 -10075-1 0  9991
2 69510  53.1601 227.3604 0000885  85.8972 276.2266 15.57565667  4966
STARLINK-37420          
1 69511U 26133D   26187.16668981 -.01866234  00000+0 -24014-1 0  9999
2 69511  53.1599 227.1712 0001057  95.2081 359.1130 15.61627118  4910
STARLINK-37511          
1 69512U 26133E   26187.16668981 -.02452691  00000+0 -32031-1 0  9997
2 69512  53.1595 227.1759 0001278  60.6699  31.6503 15.61637340  4918
STARLINK-37552          
1 69513U 26133F   26187.16668981  .00033900  00000+0  61512-3 0  9990
2 69513  53.1601 228.0331 0001939  52.2678 336.8294 15.49299339  4927
STARLINK-37607          
1 69514U 26133G   26187.16668981 -.02445919  00000+0 -35848-1 0  9993
2 69514  53.1592 227.1729 0001031  67.7559  25.9110 15.58650237  4921
